{"type": "FeatureCollection", "features": [ {"type": "Feature", "properties": {"norad_id": 33799, "name": "COSMOS 2251 DEB", "group": "cosmos-2251-debris", "lat": -42.074573122639244, "lon": 75.40276362835279, "alt_km": 652.1849798431731, "timestamp": "2025-12-08T08:59:01.159028+00:00", "meta": {"OBJECT_NAME": "COSMOS 2251 DEB", "OBJECT_ID": "1993-036AQ", "EPOCH": "2025-12-07T17:32:13.776000", "MEAN_MOTION": 14.79457413, "ECCENTRICITY": 0.00238907, "INCLINATION": 74.0324, "RA_OF_ASC_NODE": 91.6493, "ARG_OF_PERICENTER": 164.1616, "MEAN_ANOMALY": 325.1648, "EPHEMERIS_TYPE": 0, "CLASSIFICATION_TYPE": "U", "NORAD_CAT_ID": 33799, "ELEMENT_SET_NO": 999, "REV_AT_EPOCH": 88737, "BSTAR": 0.0018476355, "MEAN_MOTION_DOT": 0.00013861, "MEAN_MOTION_DDOT": 0}, "tle": {"line1": "1 33799U 93036AQ  25341.73071500  .00013861  00000+0  18476-2 0  9996", "line2": "2 33799  74.0324  91.6493 0023890 164.1616 325.1648 14.79457413887379"}}, "geometry": {"type": "Point", "coordinates": [75.40276362835279, -42.074573122639244]}}, {"type": "Feature", "properties": {"norad_id": 33805, "name": "COSMOS 2251 DEB", "group": "cosmos-2251-debris", "lat": 64.6359915724659, "lon": -3.2067527167933254, "alt_km": 685.6717894542344, "timestamp": "2025-12-08T08:59:01.159039+00:00", "meta": {"OBJECT_NAME": "COSMOS 2251 DEB", "OBJECT_ID": "1993-036AW", "EPOCH": "2025-12-07T22:46:49.329984", "MEAN_MOTION": 14.57838663, "ECCENTRICITY": 0.00603691, "INCLINATION": 74.0316, "RA_OF_ASC_NODE": 320.4444, "ARG_OF_PERICENTER": 150.777, "MEAN_ANOMALY": 209.6796, "EPHEMERIS_TYPE": 0, "CLASSIFICATION_TYPE": "U", "NORAD_CAT_ID": 33805, "ELEMENT_SET_NO": 999, "REV_AT_EPOCH": 89157, "BSTAR": 0.00036767787, "MEAN_MOTION_DOT": 1.696e-05, "MEAN_MOTION_DDOT": 0}, "tle": {"line1": "1 33805U 93036AW  25341.94918206  .00001696  00000+0  36768-3 0  9998", "line2": "2 33805  74.0316 320.4444 0060369 150.7770 209.6796 14.57838663891574"}}, "geometry": {"type": "Point", "coordinates": [-3.2067527167933254, 64.6359915724659]}}, {"type": "Feature", "properties": {"norad_id": 33811, "name": "COSMOS 2251 DEB", "group": "cosmos-2251-debris", "lat": -72.89889005809853, "lon": -118.7853689418473, "alt_km": 568.0645511332204, "timestamp": "2025-12-08T08:59:01.159050+00:00", "meta": {"OBJECT_NAME": "COSMOS 2251 DEB", "OBJECT_ID": "1993-036BC", "EPOCH": "2025-12-08T00:03:49.664160", "MEAN_MOTION": 15.05034561, "ECCENTRICITY": 0.00307045, "INCLINATION": 73.8382, "RA_OF_ASC_NODE": 312.4787, "ARG_OF_PERICENTER": 34.0091, "MEAN_ANOMALY": 29.0854, "EPHEMERIS_TYPE": 0, "CLASSIFICATION_TYPE": "U", "NORAD_CAT_ID": 33811, "ELEMENT_SET_NO": 999, "REV_AT_EPOCH": 89947, "BSTAR": 0.0014721051, "MEAN_MOTION_DOT": 0.00021155, "MEAN_MOTION_DDOT": 0}, "tle": {"line1": "1 33811U 93036BC  25342.00265815  .00021155  00000+0  14721-2 0  9990", "line2": "2 33811  73.8382 312.4787 0030704  34.0091  29.0854 15.05034561899477"}}, "geometry": {"type": "Point", "coordinates": [-118.7853689418473, -72.89889005809853]}}, {"type": "Feature", "properties": {"norad_id": 33815, "name": "COSMOS 2251 DEB", "group": "cosmos-2251-debris", "lat": 23.894376759987548, "lon": -1.5841585257317776, "alt_km": 514.9886288565976, "timestamp": "2025-12-08T08:59:01.159060+00:00", "meta": {"OBJECT_NAME": "COSMOS 2251 DEB", "OBJECT_ID": "1993-036BG", "EPOCH": "2025-12-07T23:19:18.435360", "MEAN_MOTION": 15.16387881, "ECCENTRICITY": 0.00035251, "INCLINATION": 73.9542, "RA_OF_ASC_NODE": 186.5844, "ARG_OF_PERICENTER": 231.219, "MEAN_ANOMALY": 246.9846, "EPHEMERIS_TYPE": 0, "CLASSIFICATION_TYPE": "U", "NORAD_CAT_ID": 33815, "ELEMENT_SET_NO": 999, "REV_AT_EPOCH": 88298, "BSTAR": 0.0067651398, "MEAN_MOTION_DOT": 0.00133869, "MEAN_MOTION_DDOT": 0}, "tle": {"line1": "1 33815U 93036BG  25341.97174115  .00133869  00000+0  67651-2 0  9997", "line2": "2 33815  73.9542 186.5844 0003525 231.2190 246.9846 15.16387881882983"}}, "geometry": {"type": "Point", "coordinates": [-1.5841585257317776, 23.894376759987548]}}, {"type": "Feature", "properties": {"norad_id": 33816, "name": "COSMOS 2251 DEB", "group": "cosmos-2251-debris", "lat": -18.241783944910576, "lon": 107.33040176850754, "alt_km": 1120.710178049566, "timestamp": "2025-12-08T08:59:01.159071+00:00", "meta": {"OBJECT_NAME": "COSMOS 2251 DEB", "OBJECT_ID": "1993-036BH", "EPOCH": "2025-12-07T17:26:26.699424", "MEAN_MOTION": 13.81773006, "ECCENTRICITY": 0.02650074, "INCLINATION": 73.8944, "RA_OF_ASC_NODE": 113.892, "ARG_OF_PERICENTER": 127.7989, "MEAN_ANOMALY": 234.7453, "EPHEMERIS_TYPE": 0, "CLASSIFICATION_TYPE": "U", "NORAD_CAT_ID": 33816, "ELEMENT_SET_NO": 999, "REV_AT_EPOCH": 84604, "BSTAR": 0.00094699844, "MEAN_MOTION_DOT": 1.302e-05, "MEAN_MOTION_DDOT": 0}, "tle": {"line1": "1 33816U 93036BH  25341.72669791  .00001302  00000+0  94700-3 0  9992", "line2": "2 33816  73.8944 113.8920 0265007 127.7989 234.7453 13.81773006846041"}}, "geometry": {"type": "Point", "coordinates": [107.33040176850754, -18.241783944910576]}}, {"type": "Feature", "properties": {"norad_id": 33818, "name": "COSMOS 2251 DEB", "group": "cosmos-2251-debris", "lat": 55.2865332899423, "lon": -29.07838377806092, "alt_km": 510.54720822382205, "timestamp": "2025-12-08T08:59:01.159082+00:00", "meta": {"OBJECT_NAME": "COSMOS 2251 DEB", "OBJECT_ID": "1993-036BK", "EPOCH": "2025-12-07T15:14:56.349888", "MEAN_MOTION": 15.11916417, "ECCENTRICITY": 0.00282599, "INCLINATION": 74.0751, "RA_OF_ASC_NODE": 176.7867, "ARG_OF_PERICENTER": 167.3558, "MEAN_ANOMALY": 253.6929, "EPHEMERIS_TYPE": 0, "CLASSIFICATION_TYPE": "U", "NORAD_CAT_ID": 33818, "ELEMENT_SET_NO": 999, "REV_AT_EPOCH": 89785, "BSTAR": 0.0033365953, "MEAN_MOTION_DOT": 0.00058144, "MEAN_MOTION_DDOT": 0}, "tle": {"line1": "1 33818U 93036BK  25341.63537442  .00058144  00000+0  33366-2 0  9997", "line2": "2 33818  74.0751 176.7867 0028259 167.3558 253.6929 15.11916417897851"}}, "geometry": {"type": "Point", "coordinates": [-29.07838377806092, 55.2865332899423]}}, {"type": "Feature", "properties": {"norad_id": 33819, "name": "COSMOS 2251 DEB", "group": "cosmos-2251-debris", "lat": 57.66109876686773, "lon": -115.65224387094979, "alt_km": 718.2061888762328, "timestamp": "2025-12-08T08:59:01.159092+00:00", "meta": {"OBJECT_NAME": "COSMOS 2251 DEB", "OBJECT_ID": "1993-036BL", "EPOCH": "2025-12-07T22:44:13.956864", "MEAN_MOTION": 14.3219716, "ECCENTRICITY": 0.0088882, "INCLINATION": 74.1793, "RA_OF_ASC_NODE": 218.5139, "ARG_OF_PERICENTER": 81.3015, "MEAN_ANOMALY": 300.1547, "EPHEMERIS_TYPE": 0, "CLASSIFICATION_TYPE": "U", "NORAD_CAT_ID": 33819, "ELEMENT_SET_NO": 999, "REV_AT_EPOCH": 87427, "BSTAR": 0.00082988063, "MEAN_MOTION_DOT": 2.312e-05, "MEAN_MOTION_DDOT": 0}, "tle": {"line1": "1 33819U 93036BL  25341.94738376  .00002312  00000+0  82988-3 0  9992", "line2": "2 33819  74.1793 218.5139 0088882  81.3015 300.1547 14.32197160874270"}}, "geometry": {"type": "Point", "coordinates": [-115.65224387094979, 57.66109876686773]}}, {"type": "Feature", "properties": {"norad_id": 33821, "name": "COSMOS 2251 DEB", "group": "cosmos-2251-debris", "lat": 71.34052632666226, "lon": -149.9331618790488, "alt_km": 493.91950512708263, "timestamp": "2025-12-08T08:59:01.159102+00:00", "meta": {"OBJECT_NAME": "COSMOS 2251 DEB", "OBJECT_ID": "1993-036BN", "EPOCH": "2025-12-07T21:36:29.627424", "MEAN_MOTION": 15.24869469, "ECCENTRICITY": 0.00531189, "INCLINATION": 74.0294, "RA_OF_ASC_NODE": 153.0644, "ARG_OF_PERICENTER": 187.7395, "MEAN_ANOMALY": 172.2992, "EPHEMERIS_TYPE": 0, "CLASSIFICATION_TYPE": "U", "NORAD_CAT_ID": 33821, "ELEMENT_SET_NO": 999, "REV_AT_EPOCH": 74927, "BSTAR": 0.0014815696, "MEAN_MOTION_DOT": 0.00038504, "MEAN_MOTION_DDOT": 0}, "tle": {"line1": "1 33821U 93036BN  25341.90034291  .00038504  00000+0  14816-2 0  9992", "line2": "2 33821  74.0294 153.0644 0053118 187.7395 172.2992 15.24869469749271"}}, "geometry": {"type": "Point", "coordinates": [-149.9331618790488, 71.34052632666226]}}, {"type": "Feature", "properties": {"norad_id": 33822, "name": "COSMOS 2251 DEB", "group": "cosmos-2251-debris", "lat": -7.497685882692098, "lon": 23.54284565147917, "alt_km": 797.4127103069904, "timestamp": "2025-12-08T08:59:01.159113+00:00", "meta": {"OBJECT_NAME": "COSMOS 2251 DEB", "OBJECT_ID": "1993-036BP", "EPOCH": "2025-12-07T15:23:40.219872", "MEAN_MOTION": 14.13034793, "ECCENTRICITY": 0.01537285, "INCLINATION": 74.0694, "RA_OF_ASC_NODE": 202.6818, "ARG_OF_PERICENTER": 250.2051, "MEAN_ANOMALY": 172.3635, "EPHEMERIS_TYPE": 0, "CLASSIFICATION_TYPE": "U", "NORAD_CAT_ID": 33822, "ELEMENT_SET_NO": 999, "REV_AT_EPOCH": 85982, "BSTAR": 0.0020265125, "MEAN_MOTION_DOT": 4.207e-05, "MEAN_MOTION_DDOT": 0}, "tle": {"line1": "1 33822U 93036BP  25341.64143773  .00004207  00000+0  20265-2 0  9998", "line2": "2 33822  74.0694 202.6818 0153728 250.2051 172.3635 14.13034793859822"}}, "geometry": {"type": "Point", "coordinates": [23.54284565147917, -7.497685882692098]}}, {"type": "Feature", "properties": {"norad_id": 33823, "name": "COSMOS 2251 DEB", "group": "cosmos-2251-debris", "lat": -48.207743746245555, "lon": -4.051151671637703, "alt_km": 808.2183352299344, "timestamp": "2025-12-08T08:59:01.159124+00:00", "meta": {"OBJECT_NAME": "COSMOS 2251 DEB", "OBJECT_ID": "1993-036BQ", "EPOCH": "2025-12-07T22:22:13.084896", "MEAN_MOTION": 13.98932111, "ECCENTRICITY": 0.02092677, "INCLINATION": 73.8092, "RA_OF_ASC_NODE": 157.756, "ARG_OF_PERICENTER": 283.6944, "MEAN_ANOMALY": 242.7766, "EPHEMERIS_TYPE": 0, "CLASSIFICATION_TYPE": "U", "NORAD_CAT_ID": 33823, "ELEMENT_SET_NO": 999, "REV_AT_EPOCH": 85542, "BSTAR": 0.0011137317, "MEAN_MOTION_DOT": 1.913e-05, "MEAN_MOTION_DDOT": 0}, "tle": {"line1": "1 33823U 93036BQ  25341.93209589  .00001913  00000+0  11137-2 0  9998", "line2": "2 33823  73.8092 157.7560 0209267 283.6944 242.7766 13.98932111855429"}}, "geometry": {"type": "Point", "coordinates": [-4.051151671637703, -48.207743746245555]}}]}